GALAXY 32 (G-32)        
1 54244U 22153B   26063.18586578  .00000000  00000+0  00000+0 0  9995
2 54244   0.0222 132.7365 0003004 225.3208 139.8078  1.00267915 12092
EUTELSAT 10B            
1 54259U 22157A   26065.79753673  .00000064  00000+0  00000+0 0  9996
2 54259   0.0575 102.1560 0001642   6.3934 353.0250  1.00268725 12009
GALAXY 35 (G-35)        
1 54741U 22170A   26065.56310234 -.00000166  00000+0  00000+0 0  9998
2 54741   0.0101 183.2274 0002018 165.8039 284.8523  1.00270940 11866
GALAXY 36 (G-36)        
1 54742U 22170B   26065.56396902 -.00000189  00000+0  00000+0 0  9990
2 54742   0.0191 136.2060 0002113 263.5936 238.4982  1.00272392 11749
METEOSAT-12 (MTG-I1)    
1 54743U 22170C   26065.79545671 -.00000011  00000+0  00000+0 0  9999
2 54743   0.7034  21.7646 0002003 288.2963 140.4983  1.00270038 11954
SHIJIAN-23 (SJ-23)      
1 55131U 23002A   26065.76647719 -.00000306  00000+0  00000+0 0  9996
2 55131   3.4543  79.6245 0005824 263.1966 228.9362  1.00487356 11481
APSTAR-6E               
1 55239U 23005A   26065.82206350 -.00000321  00000+0  00000+0 0  9994
2 55239   0.0471 247.1594 0001206  65.5721 281.7390  1.00270870 17660
USA 342                 
1 55263U 23008A   26062.80512854  .00000000  00000+0  00000+0 0  9991
2 55263   0.0190 154.7400 0000421 181.7368 138.7753  1.00270437 11465
LDPE-3A                 
1 55264U 23008B   26065.76512324  .00000028  00000+0  00000+0 0  9992
2 55264   2.0808  82.9893 0000753  39.1868 164.3711  0.99222798 10799
ELEKTRO-L 4             
1 55506U 23016A   26065.08447581 -.00000065  00000+0  00000+0 0  9999
2 55506   0.0979 294.7560 0001778 352.4264  72.7704  1.00272112 11308
AMAZONAS NEXUS          
1 55508U 23017A   26063.15017037 -.00000295  00000+0  00000+0 0  9992
2 55508   0.0414  44.7348 0004450 317.0979 153.1232  1.00275833  5992
ZHONGXING-26            
1 55686U 23023A   26065.46378961 -.00000358  00000+0  00000+0 0  9998
2 55686   0.0661  72.8578 0003539 326.8005  56.5699  1.00273447 11208
LUCH-5X (OLYMP-K 2)     
1 55841U 23031A   26065.74272093  .00000030  00000+0  00000+0 0  9996
2 55841   0.0266  89.0877 0001883 121.3958 283.3421  1.00272488 10913
GAOFEN-13 02            
1 55912U 23036A   26065.78308727 -.00000222  00000+0  00000+0 0  9992
2 55912   1.0314 348.0684 0005245 334.8254 271.6952  1.00275001 11067
SES-18                  
1 55970U 23038A   26065.48987639 -.00000105  00000+0  00000+0 0  9990
2 55970   0.0549 272.3494 0002329  39.3545 285.7480  1.00272241 11074
SES-19                  
1 55971U 23038B   26065.41222271  .00000083  00000+0  00000+0 0  9992
2 55971   0.0491 290.0994 0001702  54.8939 192.6323  1.00273417 11052
INTELSAT 40E (IS-40E)   
1 56174U 23052A   26063.35086435 -.00000185  00000+0  00000+0 0  9999
2 56174   0.0076 149.4349 0000737 212.9293 195.0275  1.00269079 10775
